[{"ORDINAL":"4","COMMENT":"GENERATED VIA SPACETRACK.ORG API","ORIGINATOR":"JSPOC","NORAD_CAT_ID":"40211","OBJECT_NAME":"DRAGON CRS-4 DEB","OBJECT_TYPE":"DEBRIS","CLASSIFICATION_TYPE":"U","INTLDES":"14056B","EPOCH":"2014-09-23 05:37:54","EPOCH_MICROSECONDS":"986015","MEAN_MOTION":"16.16003506","ECCENTRICITY":"0.0072643","INCLINATION":"51.6542","RA_OF_ASC_NODE":"333.3762","ARG_OF_PERICENTER":"61.8607","MEAN_ANOMALY":"300.8257","EPHEMERIS_TYPE":"0","ELEMENT_SET_NO":"10","REV_AT_EPOCH":"32","BSTAR":"0.0024991","MEAN_MOTION_DOT":"0.06163278","MEAN_MOTION_DDOT":"1.1956e-05","FILE":"1750124","TLE_LINE0":"0 DRAGON CRS-4 DEB","TLE_LINE1":"1 40211U 14056B   14266.23466419  .06163278  11956-4  24991-2 0   108","TLE_LINE2":"2 40211 051.6542 333.3762 0072643 061.8607 300.8257 16.16003506   328","OBJECT_ID":"2014-056B","OBJECT_NUMBER":"40211"},{"ORDINAL":"2","COMMENT":"GENERATED VIA SPACETRACK.ORG API","ORIGINATOR":"JSPOC","NORAD_CAT_ID":"40211","OBJECT_NAME":"DRAGON CRS-4 DEB","OBJECT_TYPE":"DEBRIS","CLASSIFICATION_TYPE":"U","INTLDES":"14056B","EPOCH":"2014-09-23 05:37:54","EPOCH_MICROSECONDS":"986015","MEAN_MOTION":"16.16003506","ECCENTRICITY":"0.0072643","INCLINATION":"51.6542","RA_OF_ASC_NODE":"333.3762","ARG_OF_PERICENTER":"61.8607","MEAN_ANOMALY":"300.8257","EPHEMERIS_TYPE":"0","ELEMENT_SET_NO":"12","REV_AT_EPOCH":"32","BSTAR":"0.0024991","MEAN_MOTION_DOT":"0.06163278","MEAN_MOTION_DDOT":"1.1956e-05","FILE":"1751896","TLE_LINE0":"0 DRAGON CRS-4 DEB","TLE_LINE1":"1 40211U 14056B   14266.23466419  .06163278  11956-4  24991-2 0   120","TLE_LINE2":"2 40211 051.6542 333.3762 0072643 061.8607 300.8257 16.16003506   328","OBJECT_ID":"2014-056B","OBJECT_NUMBER":"40211"},{"ORDINAL":"5","COMMENT":"GENERATED VIA SPACETRACK.ORG API","ORIGINATOR":"JSPOC","NORAD_CAT_ID":"40211","OBJECT_NAME":"DRAGON CRS-4 DEB","OBJECT_TYPE":"DEBRIS","CLASSIFICATION_TYPE":"U","INTLDES":"14056B","EPOCH":"2014-09-22 13:49:55","EPOCH_MICROSECONDS":"699968","MEAN_MOTION":"16.07734611","ECCENTRICITY":"0.0089099","INCLINATION":"51.6582","RA_OF_ASC_NODE":"336.9204","ARG_OF_PERICENTER":"52.9029","MEAN_ANOMALY":"86.9956","EPHEMERIS_TYPE":"0","ELEMENT_SET_NO":"8","REV_AT_EPOCH":"21","BSTAR":"0.0033432","MEAN_MOTION_DOT":"0.05088011","MEAN_MOTION_DDOT":"1.1759e-05","FILE":"1749776","TLE_LINE0":"0 DRAGON CRS-4 DEB","TLE_LINE1":"1 40211U 14056B   14265.57633912  .05088011  11759-4  33432-2 0    86","TLE_LINE2":"2 40211 051.6582 336.9204 0089099 052.9029 086.9956 16.07734611   218","OBJECT_ID":"2014-056B","OBJECT_NUMBER":"40211"},{"ORDINAL":"4","COMMENT":"GENERATED VIA SPACETRACK.ORG API","ORIGINATOR":"JSPOC","NORAD_CAT_ID":"40212","OBJECT_NAME":"DRAGON CRS-4 DEB","OBJECT_TYPE":"DEBRIS","CLASSIFICATION_TYPE":"U","INTLDES":"14056C","EPOCH":"2014-09-22 13:39:24","EPOCH_MICROSECONDS":"769152","MEAN_MOTION":"16.08188212","ECCENTRICITY":"0.0087203","INCLINATION":"51.6379","RA_OF_ASC_NODE":"336.897","ARG_OF_PERICENTER":"52.2945","MEAN_ANOMALY":"49.2757","EPHEMERIS_TYPE":"0","ELEMENT_SET_NO":"7","REV_AT_EPOCH":"21","BSTAR":"0.003102","MEAN_MOTION_DOT":"0.04775917","MEAN_MOTION_DDOT":"1.1759e-05","FILE":"1749776","TLE_LINE0":"0 DRAGON CRS-4 DEB","TLE_LINE1":"1 40212U 14056C   14265.56903668  .04775917  11759-4  31020-2 0    71","TLE_LINE2":"2 40212 051.6379 336.8970 0087203 052.2945 049.2757 16.08188212   219","OBJECT_ID":"2014-056C","OBJECT_NUMBER":"40212"},{"ORDINAL":"2","COMMENT":"GENERATED VIA SPACETRACK.ORG API","ORIGINATOR":"JSPOC","NORAD_CAT_ID":"40212","OBJECT_NAME":"DRAGON CRS-4 DEB","OBJECT_TYPE":"DEBRIS","CLASSIFICATION_TYPE":"U","INTLDES":"14056C","EPOCH":"2014-09-22 13:39:24","EPOCH_MICROSECONDS":"769152","MEAN_MOTION":"16.08188212","ECCENTRICITY":"0.0087203","INCLINATION":"51.6379","RA_OF_ASC_NODE":"336.897","ARG_OF_PERICENTER":"52.2945","MEAN_ANOMALY":"49.2757","EPHEMERIS_TYPE":"0","ELEMENT_SET_NO":"10","REV_AT_EPOCH":"21","BSTAR":"0.003102","MEAN_MOTION_DOT":"0.04775917","MEAN_MOTION_DDOT":"1.1759e-05","FILE":"1751896","TLE_LINE0":"0 DRAGON CRS-4 DEB","TLE_LINE1":"1 40212U 14056C   14265.56903668  .04775917  11759-4  31020-2 0   105","TLE_LINE2":"2 40212 051.6379 336.8970 0087203 052.2945 049.2757 16.08188212   219","OBJECT_ID":"2014-056C","OBJECT_NUMBER":"40212"},{"ORDINAL":"3","COMMENT":"GENERATED VIA SPACETRACK.ORG API","ORIGINATOR":"JSPOC","NORAD_CAT_ID":"40212","OBJECT_NAME":"DRAGON CRS-4 DEB","OBJECT_TYPE":"DEBRIS","CLASSIFICATION_TYPE":"U","INTLDES":"14056C","EPOCH":"2014-09-22 13:39:24","EPOCH_MICROSECONDS":"769152","MEAN_MOTION":"16.08188212","ECCENTRICITY":"0.0087203","INCLINATION":"51.6379","RA_OF_ASC_NODE":"336.897","ARG_OF_PERICENTER":"52.2945","MEAN_ANOMALY":"49.2757","EPHEMERIS_TYPE":"0","ELEMENT_SET_NO":"9","REV_AT_EPOCH":"21","BSTAR":"0.003102","MEAN_MOTION_DOT":"0.04775917","MEAN_MOTION_DDOT":"1.1759e-05","FILE":"1751143","TLE_LINE0":"0 DRAGON CRS-4 DEB","TLE_LINE1":"1 40212U 14056C   14265.56903668  .04775917  11759-4  31020-2 0    93","TLE_LINE2":"2 40212 051.6379 336.8970 0087203 052.2945 049.2757 16.08188212   219","OBJECT_ID":"2014-056C","OBJECT_NUMBER":"40212"},{"ORDINAL":"5","COMMENT":"GENERATED VIA SPACETRACK.ORG API","ORIGINATOR":"JSPOC","NORAD_CAT_ID":"40212","OBJECT_NAME":"DRAGON CRS-4 DEB","OBJECT_TYPE":"DEBRIS","CLASSIFICATION_TYPE":"U","INTLDES":"14056C","EPOCH":"2014-09-22 13:19:41","EPOCH_MICROSECONDS":"992031","MEAN_MOTION":"15.98735451","ECCENTRICITY":"0.0109262","INCLINATION":"51.6564","RA_OF_ASC_NODE":"337.0363","ARG_OF_PERICENTER":"53.6921","MEAN_ANOMALY":"307.4178","EPHEMERIS_TYPE":"0","ELEMENT_SET_NO":"6","REV_AT_EPOCH":"21","BSTAR":"0","MEAN_MOTION_DOT":"-3.596e-05","MEAN_MOTION_DDOT":"1.1368e-05","FILE":"1749729","TLE_LINE0":"0 DRAGON CRS-4 DEB","TLE_LINE1":"1 40212U 14056C   14265.55534713 -.00003596  11368-4  00000+0 0    61","TLE_LINE2":"2 40212 051.6564 337.0363 0109262 053.6921 307.4178 15.98735451   210","OBJECT_ID":"2014-056C","OBJECT_NUMBER":"40212"},{"ORDINAL":"1","COMMENT":"GENERATED VIA SPACETRACK.ORG API","ORIGINATOR":"JSPOC","NORAD_CAT_ID":"39772","OBJECT_NAME":"H-2A DEB","OBJECT_TYPE":"DEBRIS","CLASSIFICATION_TYPE":"U","INTLDES":"14029G","EPOCH":"2014-07-09 05:55:35","EPOCH_MICROSECONDS":"393087","MEAN_MOTION":"15.64174585","ECCENTRICITY":"0.0036571","INCLINATION":"98.0612","RA_OF_ASC_NODE":"289.8319","ARG_OF_PERICENTER":"284.5249","MEAN_ANOMALY":"77.0364","EPHEMERIS_TYPE":"0","ELEMENT_SET_NO":"66","REV_AT_EPOCH":"692","BSTAR":"0.14716","MEAN_MOTION_DOT":"0.18502308","MEAN_MOTION_DDOT":"0","FILE":"1711400","TLE_LINE0":"0 H-2A DEB","TLE_LINE1":"1 39772U 14029G   14190.24693742  .18502308  00000-0  14716+0 0   666","TLE_LINE2":"2 39772 098.0612 289.8319 0036571 284.5249 077.0364 15.64174585  6922","OBJECT_ID":"2014-029G","OBJECT_NUMBER":"39772"},{"ORDINAL":"2","COMMENT":"GENERATED VIA SPACETRACK.ORG API","ORIGINATOR":"JSPOC","NORAD_CAT_ID":"39772","OBJECT_NAME":"H-2A DEB","OBJECT_TYPE":"DEBRIS","CLASSIFICATION_TYPE":"U","INTLDES":"14029G","EPOCH":"2014-07-09 05:55:35","EPOCH_MICROSECONDS":"393087","MEAN_MOTION":"15.64174585","ECCENTRICITY":"0.0036571","INCLINATION":"98.0612","RA_OF_ASC_NODE":"289.8319","ARG_OF_PERICENTER":"284.5249","MEAN_ANOMALY":"77.0364","EPHEMERIS_TYPE":"0","ELEMENT_SET_NO":"64","REV_AT_EPOCH":"693","BSTAR":"0.14716","MEAN_MOTION_DOT":"0.18502349","MEAN_MOTION_DDOT":"0","FILE":"1711296","TLE_LINE0":"0 H-2A DEB","TLE_LINE1":"1 39772U 14029G   14190.24693742  .18502349  00000-0  14716+0 0   649","TLE_LINE2":"2 39772 098.0612 289.8319 0036571 284.5249 077.0364 15.64174585  6933","OBJECT_ID":"2014-029G","OBJECT_NUMBER":"39772"},{"ORDINAL":"3","COMMENT":"GENERATED VIA SPACETRACK.ORG API","ORIGINATOR":"JSPOC","NORAD_CAT_ID":"39772","OBJECT_NAME":"H-2A DEB","OBJECT_TYPE":"DEBRIS","CLASSIFICATION_TYPE":"U","INTLDES":"14029G","EPOCH":"2014-07-09 05:55:35","EPOCH_MICROSECONDS":"393087","MEAN_MOTION":"15.64174585","ECCENTRICITY":"0.0036571","INCLINATION":"98.0612","RA_OF_ASC_NODE":"289.8319","ARG_OF_PERICENTER":"284.5249","MEAN_ANOMALY":"77.0364","EPHEMERIS_TYPE":"0","ELEMENT_SET_NO":"63","REV_AT_EPOCH":"693","BSTAR":"0.14716","MEAN_MOTION_DOT":"0.18502349","MEAN_MOTION_DDOT":"0","FILE":"1710942","TLE_LINE0":"0 H-2A DEB","TLE_LINE1":"1 39772U 14029G   14190.24693742  .18502349  00000-0  14716+0 0   638","TLE_LINE2":"2 39772 098.0612 289.8319 0036571 284.5249 077.0364 15.64174585  6933","OBJECT_ID":"2014-029G","OBJECT_NUMBER":"39772"},{"ORDINAL":"4","COMMENT":"GENERATED VIA SPACETRACK.ORG API","ORIGINATOR":"JSPOC","NORAD_CAT_ID":"39772","OBJECT_NAME":"H-2A DEB","OBJECT_TYPE":"DEBRIS","CLASSIFICATION_TYPE":"U","INTLDES":"14029G","EPOCH":"2014-07-08 20:40:40","EPOCH_MICROSECONDS":"491264","MEAN_MOTION":"15.54657253","ECCENTRICITY":"0.0044462","INCLINATION":"98.0747","RA_OF_ASC_NODE":"289.3735","ARG_OF_PERICENTER":"288.9196","MEAN_ANOMALY":"70.7988","EPHEMERIS_TYPE":"0","ELEMENT_SET_NO":"62","REV_AT_EPOCH":"687","BSTAR":"0.11468","MEAN_MOTION_DOT":"0.09494742","MEAN_MOTION_DDOT":"0","FILE":"1710599","TLE_LINE0":"0 H-2A DEB","TLE_LINE1":"1 39772U 14029G   14189.86157976  .09494742  00000-0  11468+0 0   625","TLE_LINE2":"2 39772 098.0747 289.3735 0044462 288.9196 070.7988 15.54657253  6878","OBJECT_ID":"2014-029G","OBJECT_NUMBER":"39772"},{"ORDINAL":"5","COMMENT":"GENERATED VIA SPACETRACK.ORG API","ORIGINATOR":"JSPOC","NORAD_CAT_ID":"39772","OBJECT_NAME":"H-2A DEB","OBJECT_TYPE":"DEBRIS","CLASSIFICATION_TYPE":"U","INTLDES":"14029G","EPOCH":"2014-07-08 09:50:27","EPOCH_MICROSECONDS":"426623","MEAN_MOTION":"15.48017379","ECCENTRICITY":"0.0034241","INCLINATION":"98.0654","RA_OF_ASC_NODE":"288.9015","ARG_OF_PERICENTER":"269.8169","MEAN_ANOMALY":"89.9509","EPHEMERIS_TYPE":"0","ELEMENT_SET_NO":"61","REV_AT_EPOCH":"680","BSTAR":"0.11291","MEAN_MOTION_DOT":"0.07144355","MEAN_MOTION_DDOT":"0","FILE":"1710426","TLE_LINE0":"0 H-2A DEB","TLE_LINE1":"1 39772U 14029G   14189.41003966  .07144355  00000-0  11291+0 0   618","TLE_LINE2":"2 39772 098.0654 288.9015 0034241 269.8169 089.9509 15.48017379  6809","OBJECT_ID":"2014-029G","OBJECT_NUMBER":"39772"}]